[
  {
    "name": "PLEIADES NEO 3",
    "line1": "1 48268U 21034A   26010.90250012  .00001168  00000+0  15503-3 0  9998",
    "line2": "2 48268  97.8942  87.9259 0001268  96.1445 263.9912 14.81671194254369",
    "catNr": 48268
  },
  {
    "name": "PLEIADES NEO 4",
    "line1": "1 49070U 21073E   26010.93625340 -.00000059  00000+0 -85948-6 0  9999",
    "line2": "2 49070  97.8944  87.9547 0001221  95.2199 264.9154 14.81669679238083",
    "catNr": 49070
  }
]